SWARM B                 
1 39451U 13067A   26199.62151621  .00001849  00000+0  64951-4 0  9990
2 39451  87.7464 332.7680 0002230  85.9710 274.1794 15.28729784688049
SWARM A                 
1 39452U 13067B   26199.57154359  .00005632  00000+0  94623-4 0  9999
2 39452  87.3298  44.5697 0003337  92.3870 267.7773 15.51497909711112
SWARM C                 
1 39453U 13067C   26199.50695226  .00005694  00000+0  95677-4 0  9994
2 39453  87.3298  43.1745 0003325  92.3493 267.8150 15.51496556711061
BRITE-CA1 (TORONTO)     
1 40020U 14033L   26199.63165279  .00000485  00000+0  80468-4 0  9999
2 40020  97.9776 327.9867 0078735 175.2635 184.9336 14.72726309646847
OCO 2                   
1 40059U 14035A   26199.53721032  .00000153  00000+0  43955-4 0  9999
2 40059  98.2020 140.3544 0001425  81.0905 279.0455 14.57133566640617
BRITE-PL2 (HEWELIUSZ)   
1 40119U 14049B   26199.30252615  .00000588  00000+0  59605-4 0  9993
2 40119  97.9120 311.5482 0014032  12.0848 348.0705 14.94691030646091
MMS 1                   
1 40482U 15011A   26199.66671296 -.00001273  00000+0  00000+0 0  9998
2 40482  72.4795 348.4164 8302315 168.0810 269.7699  0.28306552  1370
MMS 2                   
1 40483U 15011B   26199.66671296 -.00001274  00000+0  00000+0 0  9990
2 40483  72.4840 348.4156 8305096 168.0805 269.7683  0.28302844  1379
MMS 3                   
1 40484U 15011C   26199.66671296 -.00001273  00000+0  00000+0 0  9990
2 40484  72.4837 348.4275 8303463 168.0882 269.7423  0.28302876  1343
MMS 4                   
1 40485U 15011D   26199.66671296 -.00001273  00000+0  00000+0 0  9991
2 40485  72.4788 348.4107 8303448 168.1014 269.7264  0.28306546  1378
ASTROSAT                
1 40930U 15052A   26199.37311254  .00001072  00000+0  48927-4 0  9995
2 40930   5.9972 290.8778 0007456 122.7434 237.3413 14.82554712584465
DAMPE                   
1 41173U 15078A   26199.60958764  .00000712  00000+0  26453-4 0  9992
2 41173  97.4562 205.2335 0011207 333.0884  26.9774 15.30858468589354
PISAT                   
1 41784U 16059B   26199.47663872  .00000426  00000+0  80076-4 0  9991
2 41784  97.8193 198.5872 0030533 104.8101 255.6491 14.69032901524336
HXMT (HUIYAN)           
1 42758U 17034A   26199.57418634  .00001880  00000+0  99475-4 0  9990
2 42758  43.0153   8.2384 0031872 341.9513  18.0202 15.18704649502438
FLYING LAPTOP           
1 42831U 17042G   26199.64585448  .00002050  00000+0  16311-3 0  9994
2 42831  97.4826 353.9983 0019543  21.5324 338.6718 15.01326759491172
ZHANGHENG 1-01 (CSES-1) 
1 43194U 18015C   26199.65463017  .00003496  00000+0  16214-3 0  9993
2 43194  97.6899   5.9420 0016680 153.4570 206.7522 15.20634219469429
SALSAT                  
1 46495U 20068K   26199.01462697  .00004061  00000+0  14177-3 0  9999
2 46495  97.8861 203.9671 0009495 182.8082 177.3106 15.30195257320078
IXPE                    
1 49954U 21121A   26199.66671296  .00005772  00000+0  28591-3 0  9996
2 49954   0.2303  79.2339 0006709 196.5714  40.6305 15.10505342  5491
SMILE                   
1 69123U 26109A   26194.95939329  .00000936  00000+0  00000+0 0  9996
2 69123  70.0512 206.6048 8313707 286.9544   0.1879  0.47500629    65
